{"type": "FeatureCollection", "features": [ {"type": "Feature", "properties": {"norad_id": 34736, "name": "COSMOS 2251 DEB", "group": "cosmos-2251-debris", "lat": -73.40087202377475, "lon": -41.8561503720537, "alt_km": 421.3353760777154, "timestamp": "2025-12-14T11:29:50.455363+00:00", "meta": {"OBJECT_NAME": "COSMOS 2251 DEB", "OBJECT_ID": "1993-036ZE", "EPOCH": "2025-12-13T14:09:47.054016", "MEAN_MOTION": 15.48538134, "ECCENTRICITY": 0.00172762, "INCLINATION": 74.001, "RA_OF_ASC_NODE": 34.3634, "ARG_OF_PERICENTER": 345.3434, "MEAN_ANOMALY": 14.7274, "EPHEMERIS_TYPE": 0, "CLASSIFICATION_TYPE": "U", "NORAD_CAT_ID": 34736, "ELEMENT_SET_NO": 999, "REV_AT_EPOCH": 88461, "BSTAR": 0.0079304178, "MEAN_MOTION_DOT": 0.00449596, "MEAN_MOTION_DDOT": 0}, "tle": {"line1": "1 34736U 93036ZE  25347.59012794  .00449596  00000+0  79304-2 0  9993", "line2": "2 34736  74.0010  34.3634 0017276 345.3434  14.7274 15.48538134884613"}}, "geometry": {"type": "Point", "coordinates": [-41.8561503720537, -73.40087202377475]}}, {"type": "Feature", "properties": {"norad_id": 34738, "name": "COSMOS 2251 DEB", "group": "cosmos-2251-debris", "lat": -71.33937352974478, "lon": 18.098836840066895, "alt_km": 714.2328474292763, "timestamp": "2025-12-14T11:29:50.455373+00:00", "meta": {"OBJECT_NAME": "COSMOS 2251 DEB", "OBJECT_ID": "1993-036ZG", "EPOCH": "2025-12-13T14:57:13.851072", "MEAN_MOTION": 14.46304989, "ECCENTRICITY": 0.00474075, "INCLINATION": 74.0145, "RA_OF_ASC_NODE": 141.615, "ARG_OF_PERICENTER": 287.7117, "MEAN_ANOMALY": 197.7392, "EPHEMERIS_TYPE": 0, "CLASSIFICATION_TYPE": "U", "NORAD_CAT_ID": 34738, "ELEMENT_SET_NO": 999, "REV_AT_EPOCH": 87871, "BSTAR": 0.0004739122, "MEAN_MOTION_DOT": 1.695e-05, "MEAN_MOTION_DDOT": 0}, "tle": {"line1": "1 34738U 93036ZG  25347.62307698  .00001695  00000+0  47391-3 0  9995", "line2": "2 34738  74.0145 141.6150 0047407 287.7117 197.7392 14.46304989878718"}}, "geometry": {"type": "Point", "coordinates": [18.098836840066895, -71.33937352974478]}}, {"type": "Feature", "properties": {"norad_id": 34750, "name": "COSMOS 2251 DEB", "group": "cosmos-2251-debris", "lat": 26.523415805126692, "lon": 10.266143469501568, "alt_km": 660.1011975450328, "timestamp": "2025-12-14T11:29:50.455383+00:00", "meta": {"OBJECT_NAME": "COSMOS 2251 DEB", "OBJECT_ID": "1993-036ZU", "EPOCH": "2025-12-13T15:23:02.186592", "MEAN_MOTION": 14.61336325, "ECCENTRICITY": 0.00387952, "INCLINATION": 74.1081, "RA_OF_ASC_NODE": 200.0355, "ARG_OF_PERICENTER": 152.8101, "MEAN_ANOMALY": 272.355, "EPHEMERIS_TYPE": 0, "CLASSIFICATION_TYPE": "U", "NORAD_CAT_ID": 34750, "ELEMENT_SET_NO": 999, "REV_AT_EPOCH": 88244, "BSTAR": 0.0012782656, "MEAN_MOTION_DOT": 6.36e-05, "MEAN_MOTION_DDOT": 0}, "tle": {"line1": "1 34750U 93036ZU  25347.64099753  .00006360  00000+0  12783-2 0  9991", "line2": "2 34750  74.1081 200.0355 0038795 152.8101 272.3550 14.61336325882441"}}, "geometry": {"type": "Point", "coordinates": [10.266143469501568, 26.523415805126692]}}, {"type": "Feature", "properties": {"norad_id": 34752, "name": "COSMOS 2251 DEB", "group": "cosmos-2251-debris", "lat": 4.466241422499286, "lon": 175.78300539883278, "alt_km": 547.6720014542598, "timestamp": "2025-12-14T11:29:50.455393+00:00", "meta": {"OBJECT_NAME": "COSMOS 2251 DEB", "OBJECT_ID": "1993-036ZW", "EPOCH": "2025-12-13T10:42:42.914592", "MEAN_MOTION": 14.99957131, "ECCENTRICITY": 0.00477018, "INCLINATION": 74.0136, "RA_OF_ASC_NODE": 359.1669, "ARG_OF_PERICENTER": 127.4592, "MEAN_ANOMALY": 233.0949, "EPHEMERIS_TYPE": 0, "CLASSIFICATION_TYPE": "U", "NORAD_CAT_ID": 34752, "ELEMENT_SET_NO": 999, "REV_AT_EPOCH": 89860, "BSTAR": 0.0015253776, "MEAN_MOTION_DOT": 0.00019425, "MEAN_MOTION_DDOT": 0}, "tle": {"line1": "1 34752U 93036ZW  25347.44633003  .00019425  00000+0  15254-2 0  9995", "line2": "2 34752  74.0136 359.1669 0047701 127.4592 233.0949 14.99957131898602"}}, "geometry": {"type": "Point", "coordinates": [175.78300539883278, 4.466241422499286]}}, {"type": "Feature", "properties": {"norad_id": 34754, "name": "COSMOS 2251 DEB", "group": "cosmos-2251-debris", "lat": 41.17527027477356, "lon": 29.879939001890904, "alt_km": 772.6298756951683, "timestamp": "2025-12-14T11:29:50.455403+00:00", "meta": {"OBJECT_NAME": "COSMOS 2251 DEB", "OBJECT_ID": "1993-036ZY", "EPOCH": "2025-12-13T16:50:22.551360", "MEAN_MOTION": 14.40483324, "ECCENTRICITY": 0.00295984, "INCLINATION": 74.0299, "RA_OF_ASC_NODE": 225.8232, "ARG_OF_PERICENTER": 341.7108, "MEAN_ANOMALY": 85.0523, "EPHEMERIS_TYPE": 0, "CLASSIFICATION_TYPE": "U", "NORAD_CAT_ID": 34754, "ELEMENT_SET_NO": 999, "REV_AT_EPOCH": 88147, "BSTAR": 0.00029030501, "MEAN_MOTION_DOT": 9.02e-06, "MEAN_MOTION_DDOT": 0}, "tle": {"line1": "1 34754U 93036ZY  25347.70164990  .00000902  00000+0  29031-3 0  9999", "line2": "2 34754  74.0299 225.8232 0029598 341.7108  85.0523 14.40483324881471"}}, "geometry": {"type": "Point", "coordinates": [29.879939001890904, 41.17527027477356]}}, {"type": "Feature", "properties": {"norad_id": 34755, "name": "COSMOS 2251 DEB", "group": "cosmos-2251-debris", "lat": 44.57860733284462, "lon": -56.264148906166845, "alt_km": 1108.0380874946777, "timestamp": "2025-12-14T11:29:50.455413+00:00", "meta": {"OBJECT_NAME": "COSMOS 2251 DEB", "OBJECT_ID": "1993-036ZZ", "EPOCH": "2025-12-13T03:21:12.314304", "MEAN_MOTION": 13.50561141, "ECCENTRICITY": 0.04082739, "INCLINATION": 73.9258, "RA_OF_ASC_NODE": 289.3819, "ARG_OF_PERICENTER": 309.135, "MEAN_ANOMALY": 63.7698, "EPHEMERIS_TYPE": 0, "CLASSIFICATION_TYPE": "U", "NORAD_CAT_ID": 34755, "ELEMENT_SET_NO": 999, "REV_AT_EPOCH": 82529, "BSTAR": 0.0020583927, "MEAN_MOTION_DOT": 2.198e-05, "MEAN_MOTION_DDOT": 0}, "tle": {"line1": "1 34755U 93036ZZ  25347.13972586  .00002198  00000+0  20584-2 0  9997", "line2": "2 34755  73.9258 289.3819 0408273 309.1350  63.7698 13.50561141825297"}}, "geometry": {"type": "Point", "coordinates": [-56.264148906166845, 44.57860733284462]}}, {"type": "Feature", "properties": {"norad_id": 34756, "name": "COSMOS 2251 DEB", "group": "cosmos-2251-debris", "lat": 53.33196250797786, "lon": 124.17278064356682, "alt_km": 949.8692368537004, "timestamp": "2025-12-14T11:29:50.455423+00:00", "meta": {"OBJECT_NAME": "COSMOS 2251 DEB", "OBJECT_ID": "1993-036AAA", "EPOCH": "2025-12-13T14:09:41.564160", "MEAN_MOTION": 13.6724515, "ECCENTRICITY": 0.0345102, "INCLINATION": 74.0027, "RA_OF_ASC_NODE": 102.9711, "ARG_OF_PERICENTER": 338.5993, "MEAN_ANOMALY": 20.0978, "EPHEMERIS_TYPE": 0, "CLASSIFICATION_TYPE": "U", "NORAD_CAT_ID": 34756, "ELEMENT_SET_NO": 999, "REV_AT_EPOCH": 83433, "BSTAR": 0.0012429272, "MEAN_MOTION_DOT": 1.552e-05, "MEAN_MOTION_DDOT": 0}, "tle": {"line1": "1 34756U 93036AAA 25347.59006440  .00001552  00000+0  12429-2 0  9997", "line2": "2 34756  74.0027 102.9711 0345102 338.5993  20.0978 13.67245150834334"}}, "geometry": {"type": "Point", "coordinates": [124.17278064356682, 53.33196250797786]}}, {"type": "Feature", "properties": {"norad_id": 34758, "name": "COSMOS 2251 DEB", "group": "cosmos-2251-debris", "lat": 63.68470847929007, "lon": 81.52642627999978, "alt_km": 852.3861386932131, "timestamp": "2025-12-14T11:29:50.455433+00:00", "meta": {"OBJECT_NAME": "COSMOS 2251 DEB", "OBJECT_ID": "1993-036AAC", "EPOCH": "2025-12-13T13:46:20.391168", "MEAN_MOTION": 13.5807199, "ECCENTRICITY": 0.03813302, "INCLINATION": 74.1077, "RA_OF_ASC_NODE": 298.1546, "ARG_OF_PERICENTER": 61.6726, "MEAN_ANOMALY": 302.2296, "EPHEMERIS_TYPE": 0, "CLASSIFICATION_TYPE": "U", "NORAD_CAT_ID": 34758, "ELEMENT_SET_NO": 999, "REV_AT_EPOCH": 82921, "BSTAR": 0.0018611254, "MEAN_MOTION_DOT": 2.146e-05, "MEAN_MOTION_DDOT": 0}, "tle": {"line1": "1 34758U 93036AAC 25347.57384712  .00002146  00000+0  18611-2 0  9997", "line2": "2 34758  74.1077 298.1546 0381330  61.6726 302.2296 13.58071990829215"}}, "geometry": {"type": "Point", "coordinates": [81.52642627999978, 63.68470847929007]}}, {"type": "Feature", "properties": {"norad_id": 34760, "name": "COSMOS 2251 DEB", "group": "cosmos-2251-debris", "lat": 22.411527263112095, "lon": -53.975150918916654, "alt_km": 767.1138156867883, "timestamp": "2025-12-14T11:29:50.455443+00:00", "meta": {"OBJECT_NAME": "COSMOS 2251 DEB", "OBJECT_ID": "1993-036AAE", "EPOCH": "2025-12-11T20:57:04.029120", "MEAN_MOTION": 14.19565488, "ECCENTRICITY": 0.0096741, "INCLINATION": 74.0637, "RA_OF_ASC_NODE": 303.9064, "ARG_OF_PERICENTER": 356.2172, "MEAN_ANOMALY": 33.6085, "EPHEMERIS_TYPE": 0, "CLASSIFICATION_TYPE": "U", "NORAD_CAT_ID": 34760, "ELEMENT_SET_NO": 999, "REV_AT_EPOCH": 86676, "BSTAR": 0.0010971, "MEAN_MOTION_DOT": 2.4e-05, "MEAN_MOTION_DDOT": 0}, "tle": {"line1": "1 34760U 93036AAE 25345.87296330  .00002400  00000+0  10971-2 0  9993", "line2": "2 34760  74.0637 303.9064 0096741 356.2172  33.6085 14.19565488866766"}}, "geometry": {"type": "Point", "coordinates": [-53.975150918916654, 22.411527263112095]}}, {"type": "Feature", "properties": {"norad_id": 34761, "name": "COSMOS 2251 DEB", "group": "cosmos-2251-debris", "lat": 55.13354953500748, "lon": 23.856319538205298, "alt_km": 735.809377539661, "timestamp": "2025-12-14T11:29:50.455452+00:00", "meta": {"OBJECT_NAME": "COSMOS 2251 DEB", "OBJECT_ID": "1993-036AAF", "EPOCH": "2025-12-12T19:09:27.421920", "MEAN_MOTION": 14.38049473, "ECCENTRICITY": 0.00364098, "INCLINATION": 74.0297, "RA_OF_ASC_NODE": 2.6837, "ARG_OF_PERICENTER": 36.7521, "MEAN_ANOMALY": 323.6119, "EPHEMERIS_TYPE": 0, "CLASSIFICATION_TYPE": "U", "NORAD_CAT_ID": 34761, "ELEMENT_SET_NO": 999, "REV_AT_EPOCH": 87650, "BSTAR": 0.0009152545, "MEAN_MOTION_DOT": 2.767e-05, "MEAN_MOTION_DDOT": 0}, "tle": {"line1": "1 34761U 93036AAF 25346.79823405  .00002767  00000+0  91525-3 0  9996", "line2": "2 34761  74.0297   2.6837 0036409  36.7521 323.6119 14.38049473876508"}}, "geometry": {"type": "Point", "coordinates": [23.856319538205298, 55.13354953500748]}}]}